<?xml version='1.0' encoding='utf-8'?>
<osm version="0.6" generator="OSMnx 1.9.4"><node id="62609527" timestamp="2025-10-20T03:51:13Z" uid="1" user="OSMnx" version="1" changeset="1" lat="42.358602" lon="-82.989627" /><node id="62609535" timestamp="2025-10-20T03:51:13Z" uid="1" user="OSMnx" version="1" changeset="1" lat="42.359288" lon="-82.988759" /><node id="62609540" timestamp="2025-10-20T03:51:13Z" uid="1" user="OSMnx" version="1" changeset="1" lat="42.359684" lon="-82.98776" /><node id="62609541" timestamp="2025-10-20T03:51:13Z" uid="1" user="OSMnx" version="1" changeset="1" lat="42.360076" lon="-82.986772" /><node id="62649257" timestamp="2025-10-20T03:51:13Z" uid="1" user="OSMnx" version="1" changeset="1" lat="42.360664" lon="-82.987195" /><node id="62709426" timestamp="2025-10-20T03:51:13Z" uid="1" user="OSMnx" version="1" changeset="1" lat="42.357963" lon="-82.989165" /><node id="62993073" timestamp="2025-10-20T03:51:13Z" uid="1" user="OSMnx" version="1" changeset="1" lat="42.360271" lon="-82.988184" /><node id="62993075" timestamp="2025-10-20T03:51:13Z" uid="1" user="OSMnx" version="1" changeset="1" lat="42.360701" lon="-82.988495" /><node id="63024399" timestamp="2025-10-20T03:51:13Z" uid="1" user="OSMnx" version="1" changeset="1" lat="42.360304" lon="-82.989493" /><node id="63024430" timestamp="2025-10-20T03:51:13Z" uid="1" user="OSMnx" version="1" changeset="1" lat="42.360986" lon="-82.986386" /><node id="4003041210" timestamp="2025-10-20T03:51:13Z" uid="1" user="OSMnx" version="1" changeset="1" lat="42.357925" lon="-82.986481" /><node id="4003041244" timestamp="2025-10-20T03:51:13Z" uid="1" user="OSMnx" version="1" changeset="1" lat="42.358334" lon="-82.989433" /><node id="4003041307" timestamp="2025-10-20T03:51:13Z" uid="1" user="OSMnx" version="1" changeset="1" lat="42.359087" lon="-82.989306" /><node id="4003041351" timestamp="2025-10-20T03:51:13Z" uid="1" user="OSMnx" version="1" changeset="1" lat="42.359495" lon="-82.988237" /><node id="4003041408" timestamp="2025-10-20T03:51:13Z" uid="1" user="OSMnx" version="1" changeset="1" lat="42.359878" lon="-82.98727" /><node id="4003041468" timestamp="2025-10-20T03:51:13Z" uid="1" user="OSMnx" version="1" changeset="1" lat="42.360274" lon="-82.986252" /><node id="4003041487" timestamp="2025-10-20T03:51:13Z" uid="1" user="OSMnx" version="1" changeset="1" lat="42.360467" lon="-82.987691" /><node id="4003041493" timestamp="2025-10-20T03:51:13Z" uid="1" user="OSMnx" version="1" changeset="1" lat="42.360505" lon="-82.988988" /><node id="4003041527" timestamp="2025-10-20T03:51:13Z" uid="1" user="OSMnx" version="1" changeset="1" lat="42.360869" lon="-82.986681" /><node id="8190601432" timestamp="2025-10-20T03:51:13Z" uid="1" user="OSMnx" version="1" changeset="1" lat="42.358219" lon="-82.986695" /><node id="8190601435" timestamp="2025-10-20T03:51:13Z" uid="1" user="OSMnx" version="1" changeset="1" lat="42.358313" lon="-82.986763" /><node id="8875744756" timestamp="2025-10-20T03:51:13Z" uid="1" user="OSMnx" version="1" changeset="1" lat="42.358278" lon="-82.989392" /><node id="9363061627" timestamp="2025-10-20T03:51:13Z" uid="1" user="OSMnx" version="1" changeset="1" lat="42.360368" lon="-82.986983" /><node id="9363061682" timestamp="2025-10-20T03:51:13Z" uid="1" user="OSMnx" version="1" changeset="1" lat="42.360959" lon="-82.987408" /><node id="9364329585" timestamp="2025-10-20T03:51:13Z" uid="1" user="OSMnx" version="1" changeset="1" lat="42.357645" lon="-82.987574" /><node id="9364329614" timestamp="2025-10-20T03:51:13Z" uid="1" user="OSMnx" version="1" changeset="1" lat="42.358612" lon="-82.985704" /><node id="9498720090" timestamp="2025-10-20T03:51:13Z" uid="1" user="OSMnx" version="1" changeset="1" lat="42.360423" lon="-82.985862"><tag k="highway" v="stop" /></node><node id="9498720092" timestamp="2025-10-20T03:51:13Z" uid="1" user="OSMnx" version="1" changeset="1" lat="42.360699" lon="-82.987106"><tag k="highway" v="stop" /></node><node id="9498720093" timestamp="2025-10-20T03:51:13Z" uid="1" user="OSMnx" version="1" changeset="1" lat="42.360628" lon="-82.987286"><tag k="highway" v="stop" /></node><node id="10674558410" timestamp="2025-10-20T03:51:13Z" uid="1" user="OSMnx" version="1" changeset="1" lat="42.362336" lon="-82.989675" /><node id="10674558453" timestamp="2025-10-20T03:51:13Z" uid="1" user="OSMnx" version="1" changeset="1" lat="42.360028" lon="-82.986737" /><node id="10674558454" timestamp="2025-10-20T03:51:13Z" uid="1" user="OSMnx" version="1" changeset="1" lat="42.359636" lon="-82.987725" /><node id="10674558455" timestamp="2025-10-20T03:51:13Z" uid="1" user="OSMnx" version="1" changeset="1" lat="42.35924" lon="-82.988724" /><node id="10674558464" timestamp="2025-10-20T03:51:13Z" uid="1" user="OSMnx" version="1" changeset="1" lat="42.360431" lon="-82.985841" /><node id="10674558472" timestamp="2025-10-20T03:51:13Z" uid="1" user="OSMnx" version="1" changeset="1" lat="42.359341" lon="-82.988797" /><node id="10674558478" timestamp="2025-10-20T03:51:13Z" uid="1" user="OSMnx" version="1" changeset="1" lat="42.359734" lon="-82.987796" /><node id="10674558488" timestamp="2025-10-20T03:51:13Z" uid="1" user="OSMnx" version="1" changeset="1" lat="42.360131" lon="-82.986809" /><node id="10674563810" timestamp="2025-10-20T03:51:13Z" uid="1" user="OSMnx" version="1" changeset="1" lat="42.360257" lon="-82.989459" /><node id="10674563831" timestamp="2025-10-20T03:51:13Z" uid="1" user="OSMnx" version="1" changeset="1" lat="42.360356" lon="-82.989531" /><node id="10674563835" timestamp="2025-10-20T03:51:13Z" uid="1" user="OSMnx" version="1" changeset="1" lat="42.360744" lon="-82.988526" /><node id="10674563840" timestamp="2025-10-20T03:51:13Z" uid="1" user="OSMnx" version="1" changeset="1" lat="42.359721" lon="-82.987668" /><node id="10674563841" timestamp="2025-10-20T03:51:13Z" uid="1" user="OSMnx" version="1" changeset="1" lat="42.360306" lon="-82.988097" /><node id="10674563848" timestamp="2025-10-20T03:51:13Z" uid="1" user="OSMnx" version="1" changeset="1" lat="42.359655" lon="-82.987832" /><node id="10674563849" timestamp="2025-10-20T03:51:13Z" uid="1" user="OSMnx" version="1" changeset="1" lat="42.360675" lon="-82.988561" /><node id="10674563851" timestamp="2025-10-20T03:51:13Z" uid="1" user="OSMnx" version="1" changeset="1" lat="42.359326" lon="-82.988664" /><node id="10674563852" timestamp="2025-10-20T03:51:13Z" uid="1" user="OSMnx" version="1" changeset="1" lat="42.360341" lon="-82.9894" /><node id="10674563853" timestamp="2025-10-20T03:51:13Z" uid="1" user="OSMnx" version="1" changeset="1" lat="42.359262" lon="-82.98883" /><node id="10674563854" timestamp="2025-10-20T03:51:13Z" uid="1" user="OSMnx" version="1" changeset="1" lat="42.360277" lon="-82.989561" /><node id="10674563855" timestamp="2025-10-20T03:51:13Z" uid="1" user="OSMnx" version="1" changeset="1" lat="42.358922" lon="-82.989757" /><node id="11208927162" timestamp="2025-10-20T03:51:13Z" uid="1" user="OSMnx" version="1" changeset="1" lat="42.359841" lon="-82.987875" /><node id="11208927167" timestamp="2025-10-20T03:51:13Z" uid="1" user="OSMnx" version="1" changeset="1" lat="42.359859" lon="-82.987887" /><node id="11208927170" timestamp="2025-10-20T03:51:13Z" uid="1" user="OSMnx" version="1" changeset="1" lat="42.360115" lon="-82.988074" /><node id="11208927173" timestamp="2025-10-20T03:51:13Z" uid="1" user="OSMnx" version="1" changeset="1" lat="42.360096" lon="-82.988061" /><node id="11399206158" timestamp="2025-10-20T03:51:13Z" uid="1" user="OSMnx" version="1" changeset="1" lat="42.358589" lon="-82.986964" /><way id="0" timestamp="2025-10-20T03:51:13Z" uid="1" user="OSMnx" version="1" changeset="1"><nd ref="62609535" /><nd ref="10674563851" /><tag k="highway" v="residential" /><tag k="name" v="Agnes Street" /></way><way id="1" timestamp="2025-10-20T03:51:13Z" uid="1" user="OSMnx" version="1" changeset="1"><nd ref="62609535" /><nd ref="10674558472" /><tag k="highway" v="residential" /><tag k="lanes" v="2" /><tag k="name" v="Hibbard Street" /></way><way id="2" timestamp="2025-10-20T03:51:13Z" uid="1" user="OSMnx" version="1" changeset="1"><nd ref="62609540" /><nd ref="10674563840" /><tag k="highway" v="residential" /><tag k="name" v="Agnes Street" /></way><way id="3" timestamp="2025-10-20T03:51:13Z" uid="1" user="OSMnx" version="1" changeset="1"><nd ref="62609540" /><nd ref="10674558478" /><tag k="highway" v="residential" /><tag k="lanes" v="2" /><tag k="name" v="Holcomb Street" /></way><way id="4" timestamp="2025-10-20T03:51:13Z" uid="1" user="OSMnx" version="1" changeset="1"><nd ref="62609541" /><nd ref="4003041468" /><tag k="highway" v="residential" /><tag k="name" v="Agnes Street" /></way><way id="5" timestamp="2025-10-20T03:51:13Z" uid="1" user="OSMnx" version="1" changeset="1"><nd ref="62609541" /><nd ref="10674558453" /><tag k="highway" v="residential" /><tag k="lanes" v="2" /><tag k="name" v="Belvidere Street" /></way><way id="6" timestamp="2025-10-20T03:51:13Z" uid="1" user="OSMnx" version="1" changeset="1"><nd ref="62649257" /><nd ref="9498720092" /><tag k="highway" v="residential" /><tag k="name" v="Saint Paul Street" /></way><way id="7" timestamp="2025-10-20T03:51:13Z" uid="1" user="OSMnx" version="1" changeset="1"><nd ref="62649257" /><nd ref="9363061627" /><tag k="highway" v="residential" /><tag k="lanes" v="2" /><tag k="name" v="Belvidere Street" /></way><way id="8" timestamp="2025-10-20T03:51:13Z" uid="1" user="OSMnx" version="1" changeset="1"><nd ref="62709426" /><nd ref="8875744756" /><tag k="highway" v="residential" /><tag k="lanes" v="2" /><tag k="name" v="Crane Street" /></way><way id="9" timestamp="2025-10-20T03:51:13Z" uid="1" user="OSMnx" version="1" changeset="1"><nd ref="62993073" /><nd ref="62993075" /><tag k="highway" v="residential" /><tag k="lanes" v="2" /><tag k="name" v="Holcomb Street" /></way><way id="10" timestamp="2025-10-20T03:51:13Z" uid="1" user="OSMnx" version="1" changeset="1"><nd ref="62993073" /><nd ref="10674563841" /><tag k="highway" v="residential" /><tag k="name" v="Saint Paul Street" /></way><way id="11" timestamp="2025-10-20T03:51:13Z" uid="1" user="OSMnx" version="1" changeset="1"><nd ref="62993075" /><nd ref="10674563835" /><tag k="highway" v="residential" /><tag k="lanes" v="2" /><tag k="name" v="Holcomb Street" /></way><way id="12" timestamp="2025-10-20T03:51:13Z" uid="1" user="OSMnx" version="1" changeset="1"><nd ref="63024399" /><nd ref="10674563852" /><tag k="highway" v="residential" /><tag k="lanes" v="2" /><tag k="name" v="Saint Paul Street" /></way><way id="13" timestamp="2025-10-20T03:51:13Z" uid="1" user="OSMnx" version="1" changeset="1"><nd ref="63024399" /><nd ref="10674563831" /><tag k="highway" v="residential" /><tag k="lanes" v="2" /><tag k="name" v="Hibbard Street" /></way><way id="14" timestamp="2025-10-20T03:51:13Z" uid="1" user="OSMnx" version="1" changeset="1"><nd ref="4003041210" /><nd ref="8190601432" /><tag k="highway" v="residential" /><tag k="lanes" v="2" /><tag k="name" v="Holcomb Street" /></way><way id="15" timestamp="2025-10-20T03:51:13Z" uid="1" user="OSMnx" version="1" changeset="1"><nd ref="4003041244" /><nd ref="62609527" /><tag k="highway" v="residential" /><tag k="lanes" v="2" /><tag k="name" v="Crane Street" /></way><way id="16" timestamp="2025-10-20T03:51:13Z" uid="1" user="OSMnx" version="1" changeset="1"><nd ref="4003041307" /><nd ref="10674563853" /><tag k="highway" v="residential" /><tag k="name" v="Agnes Street" /></way><way id="17" timestamp="2025-10-20T03:51:13Z" uid="1" user="OSMnx" version="1" changeset="1"><nd ref="4003041351" /><nd ref="10674563848" /><tag k="highway" v="residential" /><tag k="name" v="Agnes Street" /></way><way id="18" timestamp="2025-10-20T03:51:13Z" uid="1" user="OSMnx" version="1" changeset="1"><nd ref="4003041408" /><nd ref="62609541" /><tag k="highway" v="residential" /><tag k="name" v="Agnes Street" /></way><way id="19" timestamp="2025-10-20T03:51:13Z" uid="1" user="OSMnx" version="1" changeset="1"><nd ref="4003041468" /><nd ref="9498720090" /><tag k="highway" v="residential" /><tag k="name" v="Agnes Street" /></way><way id="20" timestamp="2025-10-20T03:51:13Z" uid="1" user="OSMnx" version="1" changeset="1"><nd ref="4003041487" /><nd ref="9498720093" /><tag k="highway" v="residential" /><tag k="name" v="Saint Paul Street" /></way><way id="21" timestamp="2025-10-20T03:51:13Z" uid="1" user="OSMnx" version="1" changeset="1"><nd ref="4003041493" /><nd ref="10674563849" /><tag k="highway" v="residential" /><tag k="lanes" v="2" /><tag k="name" v="Saint Paul Street" /></way><way id="22" timestamp="2025-10-20T03:51:13Z" uid="1" user="OSMnx" version="1" changeset="1"><nd ref="4003041527" /><nd ref="63024430" /><tag k="highway" v="residential" /><tag k="name" v="Saint Paul Street" /></way><way id="23" timestamp="2025-10-20T03:51:13Z" uid="1" user="OSMnx" version="1" changeset="1"><nd ref="8190601432" /><nd ref="8190601435" /><tag k="highway" v="residential" /><tag k="lanes" v="2" /><tag k="name" v="Holcomb Street" /></way><way id="24" timestamp="2025-10-20T03:51:13Z" uid="1" user="OSMnx" version="1" changeset="1"><nd ref="8190601435" /><nd ref="11399206158" /><tag k="highway" v="residential" /><tag k="lanes" v="2" /><tag k="name" v="Holcomb Street" /></way><way id="25" timestamp="2025-10-20T03:51:13Z" uid="1" user="OSMnx" version="1" changeset="1"><nd ref="8875744756" /><nd ref="4003041244" /><tag k="highway" v="residential" /><tag k="lanes" v="2" /><tag k="name" v="Crane Street" /></way><way id="26" timestamp="2025-10-20T03:51:13Z" uid="1" user="OSMnx" version="1" changeset="1"><nd ref="9363061627" /><nd ref="10674558488" /><tag k="highway" v="residential" /><tag k="lanes" v="2" /><tag k="name" v="Belvidere Street" /></way><way id="27" timestamp="2025-10-20T03:51:13Z" uid="1" user="OSMnx" version="1" changeset="1"><nd ref="9363061682" /><nd ref="62649257" /><tag k="highway" v="residential" /><tag k="lanes" v="2" /><tag k="name" v="Belvidere Street" /></way><way id="28" timestamp="2025-10-20T03:51:13Z" uid="1" user="OSMnx" version="1" changeset="1"><nd ref="9364329585" /><nd ref="10674558455" /><tag k="highway" v="residential" /><tag k="lanes" v="2" /><tag k="name" v="Hibbard Street" /></way><way id="29" timestamp="2025-10-20T03:51:13Z" uid="1" user="OSMnx" version="1" changeset="1"><nd ref="9498720090" /><nd ref="10674558464" /><tag k="highway" v="residential" /><tag k="name" v="Agnes Street" /></way><way id="30" timestamp="2025-10-20T03:51:13Z" uid="1" user="OSMnx" version="1" changeset="1"><nd ref="9498720092" /><nd ref="4003041527" /><tag k="highway" v="residential" /><tag k="name" v="Saint Paul Street" /></way><way id="31" timestamp="2025-10-20T03:51:13Z" uid="1" user="OSMnx" version="1" changeset="1"><nd ref="9498720093" /><nd ref="62649257" /><tag k="highway" v="residential" /><tag k="name" v="Saint Paul Street" /></way><way id="32" timestamp="2025-10-20T03:51:13Z" uid="1" user="OSMnx" version="1" changeset="1"><nd ref="10674558453" /><nd ref="9364329614" /><tag k="highway" v="residential" /><tag k="lanes" v="2" /><tag k="name" v="Belvidere Street" /></way><way id="33" timestamp="2025-10-20T03:51:13Z" uid="1" user="OSMnx" version="1" changeset="1"><nd ref="10674558454" /><nd ref="62609540" /><tag k="highway" v="residential" /><tag k="lanes" v="2" /><tag k="name" v="Holcomb Street" /></way><way id="34" timestamp="2025-10-20T03:51:13Z" uid="1" user="OSMnx" version="1" changeset="1"><nd ref="10674558455" /><nd ref="62609535" /><tag k="highway" v="residential" /><tag k="lanes" v="2" /><tag k="name" v="Hibbard Street" /></way><way id="35" timestamp="2025-10-20T03:51:13Z" uid="1" user="OSMnx" version="1" changeset="1"><nd ref="10674558472" /><nd ref="10674563810" /><tag k="highway" v="residential" /><tag k="lanes" v="2" /><tag k="name" v="Hibbard Street" /></way><way id="36" timestamp="2025-10-20T03:51:13Z" uid="1" user="OSMnx" version="1" changeset="1"><nd ref="10674558478" /><nd ref="11208927162" /><tag k="highway" v="residential" /><tag k="lanes" v="2" /><tag k="name" v="Holcomb Street" /></way><way id="37" timestamp="2025-10-20T03:51:13Z" uid="1" user="OSMnx" version="1" changeset="1"><nd ref="10674558488" /><nd ref="62609541" /><tag k="highway" v="residential" /><tag k="lanes" v="2" /><tag k="name" v="Belvidere Street" /></way><way id="38" timestamp="2025-10-20T03:51:13Z" uid="1" user="OSMnx" version="1" changeset="1"><nd ref="10674563810" /><nd ref="63024399" /><tag k="highway" v="residential" /><tag k="lanes" v="2" /><tag k="name" v="Hibbard Street" /></way><way id="39" timestamp="2025-10-20T03:51:13Z" uid="1" user="OSMnx" version="1" changeset="1"><nd ref="10674563835" /><nd ref="10674558410" /><tag k="highway" v="residential" /><tag k="lanes" v="2" /><tag k="name" v="Holcomb Street" /></way><way id="40" timestamp="2025-10-20T03:51:13Z" uid="1" user="OSMnx" version="1" changeset="1"><nd ref="10674563840" /><nd ref="4003041408" /><tag k="highway" v="residential" /><tag k="name" v="Agnes Street" /></way><way id="41" timestamp="2025-10-20T03:51:13Z" uid="1" user="OSMnx" version="1" changeset="1"><nd ref="10674563841" /><nd ref="4003041487" /><tag k="highway" v="residential" /><tag k="name" v="Saint Paul Street" /></way><way id="42" timestamp="2025-10-20T03:51:13Z" uid="1" user="OSMnx" version="1" changeset="1"><nd ref="10674563848" /><nd ref="62609540" /><tag k="highway" v="residential" /><tag k="name" v="Agnes Street" /></way><way id="43" timestamp="2025-10-20T03:51:13Z" uid="1" user="OSMnx" version="1" changeset="1"><nd ref="10674563849" /><nd ref="62993075" /><tag k="highway" v="residential" /><tag k="lanes" v="2" /><tag k="name" v="Saint Paul Street" /></way><way id="44" timestamp="2025-10-20T03:51:13Z" uid="1" user="OSMnx" version="1" changeset="1"><nd ref="10674563851" /><nd ref="4003041351" /><tag k="highway" v="residential" /><tag k="name" v="Agnes Street" /></way><way id="45" timestamp="2025-10-20T03:51:13Z" uid="1" user="OSMnx" version="1" changeset="1"><nd ref="10674563852" /><nd ref="4003041493" /><tag k="highway" v="residential" /><tag k="lanes" v="2" /><tag k="name" v="Saint Paul Street" /></way><way id="46" timestamp="2025-10-20T03:51:13Z" uid="1" user="OSMnx" version="1" changeset="1"><nd ref="10674563853" /><nd ref="62609535" /><tag k="highway" v="residential" /><tag k="name" v="Agnes Street" /></way><way id="47" timestamp="2025-10-20T03:51:13Z" uid="1" user="OSMnx" version="1" changeset="1"><nd ref="10674563854" /><nd ref="63024399" /><tag k="highway" v="residential" /><tag k="lanes" v="2" /><tag k="name" v="Saint Paul Street" /></way><way id="48" timestamp="2025-10-20T03:51:13Z" uid="1" user="OSMnx" version="1" changeset="1"><nd ref="10674563855" /><nd ref="4003041307" /><tag k="highway" v="residential" /><tag k="name" v="Agnes Street" /></way><way id="49" timestamp="2025-10-20T03:51:13Z" uid="1" user="OSMnx" version="1" changeset="1"><nd ref="11208927162" /><nd ref="11208927167" /><tag k="highway" v="residential" /><tag k="lanes" v="2" /><tag k="name" v="Holcomb Street" /></way><way id="50" timestamp="2025-10-20T03:51:13Z" uid="1" user="OSMnx" version="1" changeset="1"><nd ref="11208927167" /><nd ref="11208927173" /><tag k="highway" v="residential" /><tag k="lanes" v="2" /><tag k="name" v="Holcomb Street" /></way><way id="51" timestamp="2025-10-20T03:51:13Z" uid="1" user="OSMnx" version="1" changeset="1"><nd ref="11208927170" /><nd ref="62993073" /><tag k="highway" v="residential" /><tag k="lanes" v="2" /><tag k="name" v="Holcomb Street" /></way><way id="52" timestamp="2025-10-20T03:51:13Z" uid="1" user="OSMnx" version="1" changeset="1"><nd ref="11208927173" /><nd ref="11208927170" /><tag k="highway" v="residential" /><tag k="lanes" v="2" /><tag k="name" v="Holcomb Street" /></way><way id="53" timestamp="2025-10-20T03:51:13Z" uid="1" user="OSMnx" version="1" changeset="1"><nd ref="11399206158" /><nd ref="10674558454" /><tag k="highway" v="residential" /><tag k="lanes" v="2" /><tag k="name" v="Holcomb Street" /></way></osm>