<?xml version='1.0' encoding='utf-8'?>
<osm version="0.6" generator="OSMnx 1.9.4"><node id="62500603" timestamp="2025-10-19T10:20:05Z" uid="1" user="OSMnx" version="1" changeset="1" lat="42.278576" lon="-83.740792"><tag k="highway" v="traffic_signals" /></node><node id="62554404" timestamp="2025-10-19T10:20:05Z" uid="1" user="OSMnx" version="1" changeset="1" lat="42.278481" lon="-83.742013" /><node id="62554407" timestamp="2025-10-19T10:20:05Z" uid="1" user="OSMnx" version="1" changeset="1" lat="42.27783" lon="-83.74199"><tag k="highway" v="stop" /></node><node id="62601278" timestamp="2025-10-19T10:20:05Z" uid="1" user="OSMnx" version="1" changeset="1" lat="42.27782" lon="-83.743214"><tag k="highway" v="stop" /></node><node id="342986684" timestamp="2025-10-19T10:20:05Z" uid="1" user="OSMnx" version="1" changeset="1" lat="42.278836" lon="-83.742021" /><node id="2626558268" timestamp="2025-10-19T10:20:05Z" uid="1" user="OSMnx" version="1" changeset="1" lat="42.278591" lon="-83.739727"><tag k="highway" v="stop" /></node><node id="2989768395" timestamp="2025-10-19T10:20:05Z" uid="1" user="OSMnx" version="1" changeset="1" lat="42.276415" lon="-83.74196" /><node id="3094044744" timestamp="2025-10-19T10:20:05Z" uid="1" user="OSMnx" version="1" changeset="1" lat="42.277843" lon="-83.740769"><tag k="highway" v="traffic_signals" /></node><node id="4391893651" timestamp="2025-10-19T10:20:05Z" uid="1" user="OSMnx" version="1" changeset="1" lat="42.277838" lon="-83.74118" /><node id="4391893655" timestamp="2025-10-19T10:20:05Z" uid="1" user="OSMnx" version="1" changeset="1" lat="42.278248" lon="-83.740783" /><node id="4391893659" timestamp="2025-10-19T10:20:05Z" uid="1" user="OSMnx" version="1" changeset="1" lat="42.278963" lon="-83.740803" /><node id="4444962990" timestamp="2025-10-19T10:20:05Z" uid="1" user="OSMnx" version="1" changeset="1" lat="42.277815" lon="-83.743505" /><node id="4502599378" timestamp="2025-10-19T10:20:05Z" uid="1" user="OSMnx" version="1" changeset="1" lat="42.27931" lon="-83.742022"><tag k="highway" v="crossing" /></node><node id="4503835932" timestamp="2025-10-19T10:20:05Z" uid="1" user="OSMnx" version="1" changeset="1" lat="42.278516" lon="-83.742014" /><node id="4503835997" timestamp="2025-10-19T10:20:05Z" uid="1" user="OSMnx" version="1" changeset="1" lat="42.278159" lon="-83.742002" /><node id="4503835999" timestamp="2025-10-19T10:20:05Z" uid="1" user="OSMnx" version="1" changeset="1" lat="42.277836" lon="-83.741364" /><node id="4925323850" timestamp="2025-10-19T10:20:05Z" uid="1" user="OSMnx" version="1" changeset="1" lat="42.278419" lon="-83.740788"><tag k="highway" v="crossing" /></node><node id="4925323854" timestamp="2025-10-19T10:20:05Z" uid="1" user="OSMnx" version="1" changeset="1" lat="42.278578" lon="-83.740668"><tag k="highway" v="crossing" /></node><node id="4925323857" timestamp="2025-10-19T10:20:05Z" uid="1" user="OSMnx" version="1" changeset="1" lat="42.278695" lon="-83.740795"><tag k="highway" v="crossing" /></node><node id="4925323859" timestamp="2025-10-19T10:20:05Z" uid="1" user="OSMnx" version="1" changeset="1" lat="42.277932" lon="-83.740772"><tag k="highway" v="crossing" /></node><node id="4925323861" timestamp="2025-10-19T10:20:05Z" uid="1" user="OSMnx" version="1" changeset="1" lat="42.277842" lon="-83.740899"><tag k="highway" v="crossing" /></node><node id="4958401095" timestamp="2025-10-19T10:20:05Z" uid="1" user="OSMnx" version="1" changeset="1" lat="42.277299" lon="-83.743205" /><node id="4958401097" timestamp="2025-10-19T10:20:05Z" uid="1" user="OSMnx" version="1" changeset="1" lat="42.276931" lon="-83.743198" /><node id="4995768278" timestamp="2025-10-19T10:20:05Z" uid="1" user="OSMnx" version="1" changeset="1" lat="42.276283" lon="-83.743187"><tag k="highway" v="crossing" /></node><node id="4995768282" timestamp="2025-10-19T10:20:05Z" uid="1" user="OSMnx" version="1" changeset="1" lat="42.277922" lon="-83.741992"><tag k="highway" v="crossing" /></node><node id="4995768284" timestamp="2025-10-19T10:20:05Z" uid="1" user="OSMnx" version="1" changeset="1" lat="42.277829" lon="-83.742098"><tag k="highway" v="crossing" /></node><node id="4995768293" timestamp="2025-10-19T10:20:05Z" uid="1" user="OSMnx" version="1" changeset="1" lat="42.277746" lon="-83.743212"><tag k="highway" v="crossing" /></node><node id="4995768299" timestamp="2025-10-19T10:20:05Z" uid="1" user="OSMnx" version="1" changeset="1" lat="42.277761" lon="-83.74199"><tag k="highway" v="crossing" /></node><node id="4995768302" timestamp="2025-10-19T10:20:05Z" uid="1" user="OSMnx" version="1" changeset="1" lat="42.277831" lon="-83.741889"><tag k="highway" v="crossing" /></node><node id="5487584473" timestamp="2025-10-19T10:20:05Z" uid="1" user="OSMnx" version="1" changeset="1" lat="42.278343" lon="-83.742012" /><node id="5487584474" timestamp="2025-10-19T10:20:05Z" uid="1" user="OSMnx" version="1" changeset="1" lat="42.278316" lon="-83.742002" /><node id="5487584475" timestamp="2025-10-19T10:20:05Z" uid="1" user="OSMnx" version="1" changeset="1" lat="42.278088" lon="-83.742002" /><node id="5487584476" timestamp="2025-10-19T10:20:05Z" uid="1" user="OSMnx" version="1" changeset="1" lat="42.27806" lon="-83.741994" /><node id="5489994232" timestamp="2025-10-19T10:20:05Z" uid="1" user="OSMnx" version="1" changeset="1" lat="42.279266" lon="-83.740812"><tag k="highway" v="crossing" /></node><node id="5585397734" timestamp="2025-10-19T10:20:05Z" uid="1" user="OSMnx" version="1" changeset="1" lat="42.276816" lon="-83.741968" /><node id="5742841746" timestamp="2025-10-19T10:20:05Z" uid="1" user="OSMnx" version="1" changeset="1" lat="42.278586" lon="-83.740149" /><node id="6932878104" timestamp="2025-10-19T10:20:05Z" uid="1" user="OSMnx" version="1" changeset="1" lat="42.277818" lon="-83.743321"><tag k="highway" v="crossing" /></node><node id="6932878106" timestamp="2025-10-19T10:20:05Z" uid="1" user="OSMnx" version="1" changeset="1" lat="42.277907" lon="-83.743214"><tag k="highway" v="crossing" /></node><node id="6932878110" timestamp="2025-10-19T10:20:05Z" uid="1" user="OSMnx" version="1" changeset="1" lat="42.279346" lon="-83.743248"><tag k="highway" v="crossing" /></node><node id="6932878113" timestamp="2025-10-19T10:20:05Z" uid="1" user="OSMnx" version="1" changeset="1" lat="42.277809" lon="-83.74403"><tag k="highway" v="crossing" /></node><node id="8911984695" timestamp="2025-10-19T10:20:05Z" uid="1" user="OSMnx" version="1" changeset="1" lat="42.277821" lon="-83.743108"><tag k="highway" v="crossing" /></node><node id="9099621210" timestamp="2025-10-19T10:20:05Z" uid="1" user="OSMnx" version="1" changeset="1" lat="42.278671" lon="-83.742017"><tag k="highway" v="crossing" /></node><node id="9423653270" timestamp="2025-10-19T10:20:05Z" uid="1" user="OSMnx" version="1" changeset="1" lat="42.278577" lon="-83.74323" /><node id="9423653273" timestamp="2025-10-19T10:20:05Z" uid="1" user="OSMnx" version="1" changeset="1" lat="42.278638" lon="-83.743232" /><node id="9423653276" timestamp="2025-10-19T10:20:05Z" uid="1" user="OSMnx" version="1" changeset="1" lat="42.27864" lon="-83.742017" /><node id="9423653279" timestamp="2025-10-19T10:20:05Z" uid="1" user="OSMnx" version="1" changeset="1" lat="42.27872" lon="-83.742018" /><node id="9909083548" timestamp="2025-10-19T10:20:05Z" uid="1" user="OSMnx" version="1" changeset="1" lat="42.276559" lon="-83.743192" /><node id="10540331651" timestamp="2025-10-19T10:20:05Z" uid="1" user="OSMnx" version="1" changeset="1" lat="42.277814" lon="-83.743596" /><node id="10540331661" timestamp="2025-10-19T10:20:05Z" uid="1" user="OSMnx" version="1" changeset="1" lat="42.277868" lon="-83.743214"><tag k="highway" v="crossing" /></node><node id="10540331666" timestamp="2025-10-19T10:20:05Z" uid="1" user="OSMnx" version="1" changeset="1" lat="42.277825" lon="-83.742546" /><node id="10540331676" timestamp="2025-10-19T10:20:05Z" uid="1" user="OSMnx" version="1" changeset="1" lat="42.27788" lon="-83.741991"><tag k="highway" v="crossing" /></node><node id="10540331682" timestamp="2025-10-19T10:20:05Z" uid="1" user="OSMnx" version="1" changeset="1" lat="42.277885" lon="-83.740771"><tag k="highway" v="crossing" /></node><node id="10803456596" timestamp="2025-10-19T10:20:05Z" uid="1" user="OSMnx" version="1" changeset="1" lat="42.277895" lon="-83.740771" /><node id="10803620425" timestamp="2025-10-19T10:20:05Z" uid="1" user="OSMnx" version="1" changeset="1" lat="42.278584" lon="-83.740249" /><way id="0" timestamp="2025-10-19T10:20:05Z" uid="1" user="OSMnx" version="1" changeset="1"><nd ref="62500603" /><nd ref="4925323854" /><tag k="highway" v="tertiary" /><tag k="lanes" v="2" /><tag k="name" v="North University Avenue" /><tag k="oneway" v="no" /></way><way id="1" timestamp="2025-10-19T10:20:05Z" uid="1" user="OSMnx" version="1" changeset="1"><nd ref="62500603" /><nd ref="4925323850" /><tag k="highway" v="secondary" /><tag k="lanes" v="3" /><tag k="name" v="South State Street" /><tag k="oneway" v="no" /></way><way id="2" timestamp="2025-10-19T10:20:05Z" uid="1" user="OSMnx" version="1" changeset="1"><nd ref="62554404" /><nd ref="5487584473" /><tag k="highway" v="residential" /><tag k="lanes" v="2" /><tag k="maxspeed" v="25 mph" /><tag k="name" v="Maynard Street" /><tag k="oneway" v="no" /></way><way id="3" timestamp="2025-10-19T10:20:05Z" uid="1" user="OSMnx" version="1" changeset="1"><nd ref="62554407" /><nd ref="4995768299" /><tag k="highway" v="residential" /><tag k="lanes" v="2" /><tag k="maxspeed" v="25 mph" /><tag k="name" v="Maynard Street" /><tag k="oneway" v="no" /></way><way id="4" timestamp="2025-10-19T10:20:05Z" uid="1" user="OSMnx" version="1" changeset="1"><nd ref="62554407" /><nd ref="4995768302" /><tag k="highway" v="tertiary" /><tag k="lanes" v="2" /><tag k="maxspeed" v="25 mph" /><tag k="name" v="East William Street" /><tag k="oneway" v="no" /></way><way id="5" timestamp="2025-10-19T10:20:05Z" uid="1" user="OSMnx" version="1" changeset="1"><nd ref="62601278" /><nd ref="8911984695" /><tag k="highway" v="tertiary" /><tag k="lanes" v="2" /><tag k="maxspeed" v="25 mph" /><tag k="name" v="East William Street" /><tag k="oneway" v="no" /></way><way id="6" timestamp="2025-10-19T10:20:05Z" uid="1" user="OSMnx" version="1" changeset="1"><nd ref="62601278" /><nd ref="4995768293" /><tag k="highway" v="residential" /><tag k="lanes" v="2" /><tag k="name" v="Thompson Street" /><tag k="oneway" v="no" /></way><way id="7" timestamp="2025-10-19T10:20:05Z" uid="1" user="OSMnx" version="1" changeset="1"><nd ref="342986684" /><nd ref="9423653279" /><tag k="highway" v="residential" /><tag k="lanes" v="2" /><tag k="name" v="Maynard Street" /><tag k="oneway" v="no" /></way><way id="8" timestamp="2025-10-19T10:20:05Z" uid="1" user="OSMnx" version="1" changeset="1"><nd ref="4391893651" /><nd ref="4925323861" /><tag k="highway" v="tertiary" /><tag k="lanes" v="2" /><tag k="maxspeed" v="25 mph" /><tag k="name" v="East William Street" /><tag k="oneway" v="no" /></way><way id="9" timestamp="2025-10-19T10:20:05Z" uid="1" user="OSMnx" version="1" changeset="1"><nd ref="4391893655" /><nd ref="4925323859" /><tag k="highway" v="secondary" /><tag k="lanes" v="3" /><tag k="name" v="South State Street" /><tag k="oneway" v="no" /></way><way id="10" timestamp="2025-10-19T10:20:05Z" uid="1" user="OSMnx" version="1" changeset="1"><nd ref="4391893659" /><nd ref="4925323857" /><tag k="highway" v="secondary" /><tag k="lanes" v="2" /><tag k="name" v="South State Street" /><tag k="oneway" v="no" /></way><way id="11" timestamp="2025-10-19T10:20:05Z" uid="1" user="OSMnx" version="1" changeset="1"><nd ref="4444962990" /><nd ref="6932878104" /><tag k="highway" v="tertiary" /><tag k="lanes" v="2" /><tag k="maxspeed" v="25 mph" /><tag k="name" v="East William Street" /><tag k="oneway" v="no" /></way><way id="12" timestamp="2025-10-19T10:20:05Z" uid="1" user="OSMnx" version="1" changeset="1"><nd ref="4502599378" /><nd ref="342986684" /><tag k="highway" v="residential" /><tag k="lanes" v="2" /><tag k="name" v="Maynard Street" /><tag k="oneway" v="no" /></way><way id="13" timestamp="2025-10-19T10:20:05Z" uid="1" user="OSMnx" version="1" changeset="1"><nd ref="4503835932" /><nd ref="62554404" /><tag k="highway" v="residential" /><tag k="lanes" v="2" /><tag k="name" v="Maynard Street" /><tag k="oneway" v="no" /></way><way id="14" timestamp="2025-10-19T10:20:05Z" uid="1" user="OSMnx" version="1" changeset="1"><nd ref="4503835997" /><nd ref="5487584475" /><tag k="highway" v="residential" /><tag k="lanes" v="2" /><tag k="maxspeed" v="25 mph" /><tag k="name" v="Maynard Street" /><tag k="oneway" v="no" /></way><way id="15" timestamp="2025-10-19T10:20:05Z" uid="1" user="OSMnx" version="1" changeset="1"><nd ref="4503835999" /><nd ref="4391893651" /><tag k="highway" v="tertiary" /><tag k="lanes" v="2" /><tag k="maxspeed" v="25 mph" /><tag k="name" v="East William Street" /><tag k="oneway" v="no" /></way><way id="16" timestamp="2025-10-19T10:20:05Z" uid="1" user="OSMnx" version="1" changeset="1"><nd ref="4925323850" /><nd ref="4391893655" /><tag k="highway" v="secondary" /><tag k="lanes" v="3" /><tag k="name" v="South State Street" /><tag k="oneway" v="no" /></way><way id="17" timestamp="2025-10-19T10:20:05Z" uid="1" user="OSMnx" version="1" changeset="1"><nd ref="4925323854" /><nd ref="10803620425" /><tag k="highway" v="tertiary" /><tag k="lanes" v="2" /><tag k="name" v="North University Avenue" /><tag k="oneway" v="no" /></way><way id="18" timestamp="2025-10-19T10:20:05Z" uid="1" user="OSMnx" version="1" changeset="1"><nd ref="4925323857" /><nd ref="62500603" /><tag k="highway" v="secondary" /><tag k="lanes" v="2" /><tag k="name" v="South State Street" /><tag k="oneway" v="no" /></way><way id="19" timestamp="2025-10-19T10:20:05Z" uid="1" user="OSMnx" version="1" changeset="1"><nd ref="4925323859" /><nd ref="10803456596" /><tag k="highway" v="secondary" /><tag k="lanes" v="3" /><tag k="name" v="South State Street" /><tag k="oneway" v="no" /></way><way id="20" timestamp="2025-10-19T10:20:05Z" uid="1" user="OSMnx" version="1" changeset="1"><nd ref="4925323861" /><nd ref="3094044744" /><tag k="highway" v="tertiary" /><tag k="lanes" v="2" /><tag k="maxspeed" v="25 mph" /><tag k="name" v="East William Street" /><tag k="oneway" v="no" /></way><way id="21" timestamp="2025-10-19T10:20:05Z" uid="1" user="OSMnx" version="1" changeset="1"><nd ref="4958401095" /><nd ref="4958401097" /><tag k="highway" v="residential" /><tag k="lanes" v="2" /><tag k="name" v="Thompson Street" /><tag k="oneway" v="no" /></way><way id="22" timestamp="2025-10-19T10:20:05Z" uid="1" user="OSMnx" version="1" changeset="1"><nd ref="4958401097" /><nd ref="9909083548" /><tag k="highway" v="residential" /><tag k="lanes" v="2" /><tag k="name" v="Thompson Street" /><tag k="oneway" v="no" /></way><way id="23" timestamp="2025-10-19T10:20:05Z" uid="1" user="OSMnx" version="1" changeset="1"><nd ref="4995768282" /><nd ref="10540331676" /><tag k="highway" v="residential" /><tag k="lanes" v="2" /><tag k="maxspeed" v="25 mph" /><tag k="name" v="Maynard Street" /><tag k="oneway" v="no" /></way><way id="24" timestamp="2025-10-19T10:20:05Z" uid="1" user="OSMnx" version="1" changeset="1"><nd ref="4995768284" /><nd ref="62554407" /><tag k="highway" v="tertiary" /><tag k="lanes" v="2" /><tag k="maxspeed" v="25 mph" /><tag k="name" v="East William Street" /><tag k="oneway" v="no" /></way><way id="25" timestamp="2025-10-19T10:20:05Z" uid="1" user="OSMnx" version="1" changeset="1"><nd ref="4995768293" /><nd ref="4958401095" /><tag k="highway" v="residential" /><tag k="lanes" v="2" /><tag k="name" v="Thompson Street" /><tag k="oneway" v="no" /></way><way id="26" timestamp="2025-10-19T10:20:05Z" uid="1" user="OSMnx" version="1" changeset="1"><nd ref="4995768299" /><nd ref="5585397734" /><tag k="highway" v="residential" /><tag k="lanes" v="2" /><tag k="maxspeed" v="25 mph" /><tag k="name" v="Maynard Street" /><tag k="oneway" v="no" /></way><way id="27" timestamp="2025-10-19T10:20:05Z" uid="1" user="OSMnx" version="1" changeset="1"><nd ref="4995768302" /><nd ref="4503835999" /><tag k="highway" v="tertiary" /><tag k="lanes" v="2" /><tag k="maxspeed" v="25 mph" /><tag k="name" v="East William Street" /><tag k="oneway" v="no" /></way><way id="28" timestamp="2025-10-19T10:20:05Z" uid="1" user="OSMnx" version="1" changeset="1"><nd ref="5487584473" /><nd ref="5487584474" /><tag k="highway" v="residential" /><tag k="lanes" v="2" /><tag k="maxspeed" v="25 mph" /><tag k="name" v="Maynard Street" /><tag k="oneway" v="no" /></way><way id="29" timestamp="2025-10-19T10:20:05Z" uid="1" user="OSMnx" version="1" changeset="1"><nd ref="5487584474" /><nd ref="4503835997" /><tag k="highway" v="residential" /><tag k="lanes" v="2" /><tag k="maxspeed" v="25 mph" /><tag k="name" v="Maynard Street" /><tag k="oneway" v="no" /></way><way id="30" timestamp="2025-10-19T10:20:05Z" uid="1" user="OSMnx" version="1" changeset="1"><nd ref="5487584475" /><nd ref="5487584476" /><tag k="highway" v="residential" /><tag k="lanes" v="2" /><tag k="maxspeed" v="25 mph" /><tag k="name" v="Maynard Street" /><tag k="oneway" v="no" /></way><way id="31" timestamp="2025-10-19T10:20:05Z" uid="1" user="OSMnx" version="1" changeset="1"><nd ref="5487584476" /><nd ref="4995768282" /><tag k="highway" v="residential" /><tag k="lanes" v="2" /><tag k="maxspeed" v="25 mph" /><tag k="name" v="Maynard Street" /><tag k="oneway" v="no" /></way><way id="32" timestamp="2025-10-19T10:20:05Z" uid="1" user="OSMnx" version="1" changeset="1"><nd ref="5489994232" /><nd ref="4391893659" /><tag k="highway" v="secondary" /><tag k="lanes" v="3" /><tag k="name" v="South State Street" /><tag k="oneway" v="no" /></way><way id="33" timestamp="2025-10-19T10:20:05Z" uid="1" user="OSMnx" version="1" changeset="1"><nd ref="5585397734" /><nd ref="2989768395" /><tag k="highway" v="residential" /><tag k="lanes" v="2" /><tag k="maxspeed" v="25 mph" /><tag k="name" v="Maynard Street" /><tag k="oneway" v="no" /></way><way id="34" timestamp="2025-10-19T10:20:05Z" uid="1" user="OSMnx" version="1" changeset="1"><nd ref="5742841746" /><nd ref="2626558268" /><tag k="highway" v="tertiary" /><tag k="lanes" v="2" /><tag k="name" v="North University Avenue" /><tag k="oneway" v="no" /></way><way id="35" timestamp="2025-10-19T10:20:05Z" uid="1" user="OSMnx" version="1" changeset="1"><nd ref="6932878104" /><nd ref="62601278" /><tag k="highway" v="tertiary" /><tag k="lanes" v="2" /><tag k="maxspeed" v="25 mph" /><tag k="name" v="East William Street" /><tag k="oneway" v="no" /></way><way id="36" timestamp="2025-10-19T10:20:05Z" uid="1" user="OSMnx" version="1" changeset="1"><nd ref="6932878106" /><nd ref="10540331661" /><tag k="highway" v="residential" /><tag k="lanes" v="2" /><tag k="maxspeed" v="25 mph" /><tag k="name" v="Thompson Street" /><tag k="oneway" v="no" /></way><way id="37" timestamp="2025-10-19T10:20:05Z" uid="1" user="OSMnx" version="1" changeset="1"><nd ref="6932878110" /><nd ref="9423653273" /><tag k="highway" v="residential" /><tag k="lanes" v="2" /><tag k="maxspeed" v="25 mph" /><tag k="name" v="Thompson Street" /><tag k="oneway" v="no" /></way><way id="38" timestamp="2025-10-19T10:20:05Z" uid="1" user="OSMnx" version="1" changeset="1"><nd ref="6932878113" /><nd ref="10540331651" /><tag k="highway" v="tertiary" /><tag k="lanes" v="2" /><tag k="maxspeed" v="25 mph" /><tag k="name" v="East William Street" /><tag k="oneway" v="no" /></way><way id="39" timestamp="2025-10-19T10:20:05Z" uid="1" user="OSMnx" version="1" changeset="1"><nd ref="8911984695" /><nd ref="10540331666" /><tag k="highway" v="tertiary" /><tag k="lanes" v="2" /><tag k="maxspeed" v="25 mph" /><tag k="name" v="East William Street" /><tag k="oneway" v="no" /></way><way id="40" timestamp="2025-10-19T10:20:05Z" uid="1" user="OSMnx" version="1" changeset="1"><nd ref="9099621210" /><nd ref="9423653276" /><tag k="highway" v="residential" /><tag k="lanes" v="2" /><tag k="name" v="Maynard Street" /><tag k="oneway" v="no" /></way><way id="41" timestamp="2025-10-19T10:20:05Z" uid="1" user="OSMnx" version="1" changeset="1"><nd ref="9423653270" /><nd ref="6932878106" /><tag k="highway" v="residential" /><tag k="lanes" v="2" /><tag k="maxspeed" v="25 mph" /><tag k="name" v="Thompson Street" /><tag k="oneway" v="no" /></way><way id="42" timestamp="2025-10-19T10:20:05Z" uid="1" user="OSMnx" version="1" changeset="1"><nd ref="9423653273" /><nd ref="9423653270" /><tag k="highway" v="residential" /><tag k="lanes" v="2" /><tag k="maxspeed" v="25 mph" /><tag k="name" v="Thompson Street" /><tag k="oneway" v="no" /></way><way id="43" timestamp="2025-10-19T10:20:05Z" uid="1" user="OSMnx" version="1" changeset="1"><nd ref="9423653276" /><nd ref="4503835932" /><tag k="highway" v="residential" /><tag k="lanes" v="2" /><tag k="name" v="Maynard Street" /><tag k="oneway" v="no" /></way><way id="44" timestamp="2025-10-19T10:20:05Z" uid="1" user="OSMnx" version="1" changeset="1"><nd ref="9423653279" /><nd ref="9099621210" /><tag k="highway" v="residential" /><tag k="lanes" v="2" /><tag k="name" v="Maynard Street" /><tag k="oneway" v="no" /></way><way id="45" timestamp="2025-10-19T10:20:05Z" uid="1" user="OSMnx" version="1" changeset="1"><nd ref="9909083548" /><nd ref="4995768278" /><tag k="highway" v="residential" /><tag k="lanes" v="2" /><tag k="name" v="Thompson Street" /><tag k="oneway" v="no" /></way><way id="46" timestamp="2025-10-19T10:20:05Z" uid="1" user="OSMnx" version="1" changeset="1"><nd ref="10540331651" /><nd ref="4444962990" /><tag k="highway" v="tertiary" /><tag k="lanes" v="2" /><tag k="maxspeed" v="25 mph" /><tag k="name" v="East William Street" /><tag k="oneway" v="no" /></way><way id="47" timestamp="2025-10-19T10:20:05Z" uid="1" user="OSMnx" version="1" changeset="1"><nd ref="10540331661" /><nd ref="62601278" /><tag k="highway" v="residential" /><tag k="lanes" v="2" /><tag k="maxspeed" v="25 mph" /><tag k="name" v="Thompson Street" /><tag k="oneway" v="no" /></way><way id="48" timestamp="2025-10-19T10:20:05Z" uid="1" user="OSMnx" version="1" changeset="1"><nd ref="10540331666" /><nd ref="4995768284" /><tag k="highway" v="tertiary" /><tag k="lanes" v="2" /><tag k="maxspeed" v="25 mph" /><tag k="name" v="East William Street" /><tag k="oneway" v="no" /></way><way id="49" timestamp="2025-10-19T10:20:05Z" uid="1" user="OSMnx" version="1" changeset="1"><nd ref="10540331676" /><nd ref="62554407" /><tag k="highway" v="residential" /><tag k="lanes" v="2" /><tag k="maxspeed" v="25 mph" /><tag k="name" v="Maynard Street" /><tag k="oneway" v="no" /></way><way id="50" timestamp="2025-10-19T10:20:05Z" uid="1" user="OSMnx" version="1" changeset="1"><nd ref="10540331682" /><nd ref="3094044744" /><tag k="highway" v="secondary" /><tag k="lanes" v="3" /><tag k="name" v="South State Street" /><tag k="oneway" v="no" /></way><way id="51" timestamp="2025-10-19T10:20:05Z" uid="1" user="OSMnx" version="1" changeset="1"><nd ref="10803456596" /><nd ref="10540331682" /><tag k="highway" v="secondary" /><tag k="lanes" v="3" /><tag k="name" v="South State Street" /><tag k="oneway" v="no" /></way><way id="52" timestamp="2025-10-19T10:20:05Z" uid="1" user="OSMnx" version="1" changeset="1"><nd ref="10803620425" /><nd ref="5742841746" /><tag k="highway" v="tertiary" /><tag k="lanes" v="2" /><tag k="name" v="North University Avenue" /><tag k="oneway" v="no" /></way></osm>